[{"OBJECT_NAME":"STARLINK-30539","OBJECT_ID":"2023-153P","EPOCH":"2026-03-09T01:06:24.405984","MEAN_MOTION":15.26767353,"ECCENTRICITY":7.977e-5,"INCLINATION":42.9977,"RA_OF_ASC_NODE":70.1915,"ARG_OF_PERICENTER":178.2383,"MEAN_ANOMALY":181.8471,"EPHEMERIS_TYPE":0,"CLASSIFICATION_TYPE":"U","NORAD_CAT_ID":58004,"ELEMENT_SET_NO":999,"REV_AT_EPOCH":13479,"BSTAR":-0.00047045668,"MEAN_MOTION_DOT":-0.00012867,"MEAN_MOTION_DDOT":0},{"OBJECT_NAME":"VSP RF C1","OBJECT_ID":"2024-043AQ","EPOCH":"2026-03-09T21:56:05.358624","MEAN_MOTION":15.29409663,"ECCENTRICITY":0.00093965,"INCLINATION":97.5441,"RA_OF_ASC_NODE":205.1792,"ARG_OF_PERICENTER":219.6172,"MEAN_ANOMALY":140.4382,"EPHEMERIS_TYPE":0,"CLASSIFICATION_TYPE":"U","NORAD_CAT_ID":59136,"ELEMENT_SET_NO":999,"REV_AT_EPOCH":11190,"BSTAR":0.00026222052,"MEAN_MOTION_DOT":7.409e-5,"MEAN_MOTION_DDOT":0}]
